{"type": "FeatureCollection", "features": [ {"type": "Feature", "properties": {"norad_id": 45358, "name": "COSMOS 2545 (760)", "group": "glo-ops", "lat": 51.139238335775815, "lon": 102.2180375707701, "alt_km": 19142.642951735445, "timestamp": "2025-12-23T09:49:07.344246+00:00", "meta": {"OBJECT_NAME": "COSMOS 2545 (760)", "OBJECT_ID": "2020-018A", "EPOCH": "2025-12-22T07:31:25.141152", "MEAN_MOTION": 2.13102698, "ECCENTRICITY": 0.00113434, "INCLINATION": 64.464, "RA_OF_ASC_NODE": 318.6341, "ARG_OF_PERICENTER": 250.3607, "MEAN_ANOMALY": 109.513, "EPHEMERIS_TYPE": 0, "CLASSIFICATION_TYPE": "U", "NORAD_CAT_ID": 45358, "ELEMENT_SET_NO": 999, "REV_AT_EPOCH": 4489, "BSTAR": 0, "MEAN_MOTION_DOT": -4.2e-07, "MEAN_MOTION_DDOT": 0}, "tle": {"line1": "1 45358U 20018A   25356.31348543 -.00000042  00000+0  00000+0 0  9993", "line2": "2 45358  64.4640 318.6341 0011343 250.3607 109.5130  2.13102698 44898"}}, "geometry": {"type": "Point", "coordinates": [102.2180375707701, 51.139238335775815]}}, {"type": "Feature", "properties": {"norad_id": 46805, "name": "COSMOS 2547 (705K)", "group": "glo-ops", "lat": -21.38318942302011, "lon": -172.38495471035145, "alt_km": 19138.141474901764, "timestamp": "2025-12-23T09:49:07.344272+00:00", "meta": {"OBJECT_NAME": "COSMOS 2547 (705K)", "OBJECT_ID": "2020-075A", "EPOCH": "2025-12-22T00:46:38.571168", "MEAN_MOTION": 2.13100252, "ECCENTRICITY": 0.000611, "INCLINATION": 64.5967, "RA_OF_ASC_NODE": 198.3861, "ARG_OF_PERICENTER": 227.6651, "MEAN_ANOMALY": 132.3515, "EPHEMERIS_TYPE": 0, "CLASSIFICATION_TYPE": "U", "NORAD_CAT_ID": 46805, "ELEMENT_SET_NO": 999, "REV_AT_EPOCH": 4013, "BSTAR": 0, "MEAN_MOTION_DOT": 9.6e-07, "MEAN_MOTION_DDOT": 0}, "tle": {"line1": "1 46805U 20075A   25356.03239087  .00000096  00000+0  00000+0 0  9993", "line2": "2 46805  64.5967 198.3861 0006110 227.6651 132.3515  2.13100252 40139"}}, "geometry": {"type": "Point", "coordinates": [-172.38495471035145, -21.38318942302011]}}, {"type": "Feature", "properties": {"norad_id": 52984, "name": "COSMOS 2557 (706K)", "group": "glo-ops", "lat": -26.083179985543325, "lon": 154.2218842970082, "alt_km": 19121.310957221165, "timestamp": "2025-12-23T09:49:07.344290+00:00", "meta": {"OBJECT_NAME": "COSMOS 2557 (706K)", "OBJECT_ID": "2022-075A", "EPOCH": "2025-12-22T04:44:33.439200", "MEAN_MOTION": 2.13102045, "ECCENTRICITY": 0.00135379, "INCLINATION": 64.4045, "RA_OF_ASC_NODE": 320.7192, "ARG_OF_PERICENTER": 278.4147, "MEAN_ANOMALY": 81.4275, "EPHEMERIS_TYPE": 0, "CLASSIFICATION_TYPE": "U", "NORAD_CAT_ID": 52984, "ELEMENT_SET_NO": 999, "REV_AT_EPOCH": 2694, "BSTAR": 0, "MEAN_MOTION_DOT": -4.3e-07, "MEAN_MOTION_DDOT": 0}, "tle": {"line1": "1 52984U 22075A   25356.19760925 -.00000043  00000+0  00000+0 0  9990", "line2": "2 52984  64.4045 320.7192 0013537 278.4147  81.4275  2.13102045 26945"}}, "geometry": {"type": "Point", "coordinates": [154.2218842970082, -26.083179985543325]}}, {"type": "Feature", "properties": {"norad_id": 54031, "name": "COSMOS 2559 (707K)", "group": "glo-ops", "lat": -10.676575072893936, "lon": -44.43876937947234, "alt_km": 19158.781438886588, "timestamp": "2025-12-23T09:49:07.344302+00:00", "meta": {"OBJECT_NAME": "COSMOS 2559 (707K)", "OBJECT_ID": "2022-130A", "EPOCH": "2025-12-22T11:39:56.948256", "MEAN_MOTION": 2.13101308, "ECCENTRICITY": 0.0011535, "INCLINATION": 64.3767, "RA_OF_ASC_NODE": 320.7983, "ARG_OF_PERICENTER": 191.7961, "MEAN_ANOMALY": 168.1737, "EPHEMERIS_TYPE": 0, "CLASSIFICATION_TYPE": "U", "NORAD_CAT_ID": 54031, "ELEMENT_SET_NO": 999, "REV_AT_EPOCH": 2492, "BSTAR": 0, "MEAN_MOTION_DOT": -4.2e-07, "MEAN_MOTION_DDOT": 0}, "tle": {"line1": "1 54031U 22130A   25356.48607579 -.00000042  00000+0  00000+0 0  9993", "line2": "2 54031  64.3767 320.7983 0011535 191.7961 168.1737  2.13101308 24928"}}, "geometry": {"type": "Point", "coordinates": [-44.43876937947234, -10.676575072893936]}}, {"type": "Feature", "properties": {"norad_id": 54377, "name": "COSMOS 2564 (761)", "group": "glo-ops", "lat": 59.5288373596899, "lon": -34.865456898862526, "alt_km": 19125.679874022768, "timestamp": "2025-12-23T09:49:07.344313+00:00", "meta": {"OBJECT_NAME": "COSMOS 2564 (761)", "OBJECT_ID": "2022-161A", "EPOCH": "2025-12-22T07:55:31.540224", "MEAN_MOTION": 2.13102045, "ECCENTRICITY": 0.00085467, "INCLINATION": 64.7388, "RA_OF_ASC_NODE": 198.5803, "ARG_OF_PERICENTER": 203.7218, "MEAN_ANOMALY": 156.3061, "EPHEMERIS_TYPE": 0, "CLASSIFICATION_TYPE": "U", "NORAD_CAT_ID": 54377, "ELEMENT_SET_NO": 999, "REV_AT_EPOCH": 2386, "BSTAR": 0, "MEAN_MOTION_DOT": 9.5e-07, "MEAN_MOTION_DDOT": 0}, "tle": {"line1": "1 54377U 22161A   25356.33022616  .00000095  00000+0  00000+0 0  9994", "line2": "2 54377  64.7388 198.5803 0008546 203.7218 156.3061  2.13102045 23863"}}, "geometry": {"type": "Point", "coordinates": [-34.865456898862526, 59.5288373596899]}}, {"type": "Feature", "properties": {"norad_id": 57517, "name": "COSMOS 2569 (703K)", "group": "glo-ops", "lat": 64.21026081775621, "lon": -174.24695808253577, "alt_km": 19150.141978375003, "timestamp": "2025-12-23T09:49:07.344325+00:00", "meta": {"OBJECT_NAME": "COSMOS 2569 (703K)", "OBJECT_ID": "2023-114A", "EPOCH": "2025-12-22T08:14:44.480832", "MEAN_MOTION": 2.13104025, "ECCENTRICITY": 0.00108594, "INCLINATION": 65.199, "RA_OF_ASC_NODE": 78.589, "ARG_OF_PERICENTER": 287.0596, "MEAN_ANOMALY": 72.8655, "EPHEMERIS_TYPE": 0, "CLASSIFICATION_TYPE": "U", "NORAD_CAT_ID": 57517, "ELEMENT_SET_NO": 999, "REV_AT_EPOCH": 1849, "BSTAR": 0, "MEAN_MOTION_DOT": -3e-08, "MEAN_MOTION_DDOT": 0}, "tle": {"line1": "1 57517U 23114A   25356.34357038 -.00000003  00000+0  00000+0 0  9992", "line2": "2 57517  65.1990  78.5890 0010859 287.0596  72.8655  2.13104025 18497"}}, "geometry": {"type": "Point", "coordinates": [-174.24695808253577, 64.21026081775621]}}, {"type": "Feature", "properties": {"norad_id": 63130, "name": "COSMOS 2584 (704K)", "group": "glo-ops", "lat": -3.9624371951856485, "lon": -99.35275908571587, "alt_km": 19114.740766492698, "timestamp": "2025-12-23T09:49:07.344336+00:00", "meta": {"OBJECT_NAME": "COSMOS 2584 (704K)", "OBJECT_ID": "2025-042A", "EPOCH": "2025-12-22T05:31:29.288640", "MEAN_MOTION": 2.1310305, "ECCENTRICITY": 0.00077501, "INCLINATION": 64.9809, "RA_OF_ASC_NODE": 78.8228, "ARG_OF_PERICENTER": 219.7586, "MEAN_ANOMALY": 140.2275, "EPHEMERIS_TYPE": 0, "CLASSIFICATION_TYPE": "U", "NORAD_CAT_ID": 63130, "ELEMENT_SET_NO": 999, "REV_AT_EPOCH": 627, "BSTAR": 0, "MEAN_MOTION_DOT": -4e-08, "MEAN_MOTION_DDOT": 0}, "tle": {"line1": "1 63130U 25042A   25356.23020010 -.00000004  00000+0  00000+0 0  9998", "line2": "2 63130  64.9809  78.8228 0007750 219.7586 140.2275  2.13103050  6274"}}, "geometry": {"type": "Point", "coordinates": [-99.35275908571587, -3.9624371951856485]}}, {"type": "Feature", "properties": {"norad_id": 65590, "name": "COSMOS 2596 (708K)", "group": "glo-ops", "lat": -49.48888011879712, "lon": -72.43521332707279, "alt_km": 19099.865754221453, "timestamp": "2025-12-23T09:49:07.344347+00:00", "meta": {"OBJECT_NAME": "COSMOS 2596 (708K)", "OBJECT_ID": "2025-206B", "EPOCH": "2025-12-22T03:59:43.719936", "MEAN_MOTION": 2.1310041, "ECCENTRICITY": 0.00140887, "INCLINATION": 64.7392, "RA_OF_ASC_NODE": 321.1476, "ARG_OF_PERICENTER": 307.2643, "MEAN_ANOMALY": 122.2256, "EPHEMERIS_TYPE": 0, "CLASSIFICATION_TYPE": "U", "NORAD_CAT_ID": 65590, "ELEMENT_SET_NO": 999, "REV_AT_EPOCH": 214, "BSTAR": 0, "MEAN_MOTION_DOT": -4.3e-07, "MEAN_MOTION_DDOT": 0}, "tle": {"line1": "1 65590U 25206B   25356.16647824 -.00000043  00000+0  00000+0 0  9995", "line2": "2 65590  64.7392 321.1476 0014088 307.2643 122.2256  2.13100410  2147"}}, "geometry": {"type": "Point", "coordinates": [-72.43521332707279, -49.48888011879712]}}]}